TIANMU-1 08             
1 57400U 23101B   26066.00237819  .00000346  00000+0  14775-4 0  9993
2 57400  97.2717 118.7901 0006380 134.2174 225.9592 15.29204229146020
STARLINK-31754          
1 59488U 24071E   26068.13686447  .00003274  00000+0  12843-3 0  9995
2 59488  43.0014 350.4320 0001328 258.4045 101.6657 15.27584946108036
